CCSDS_OEM_VERS = 2.0  
CREATION_DATE  = 2026-03-24T10:46:40
ORIGINATOR     = ESOC/OPS-GFA                            
 
 



META_START
OBJECT_NAME          = LISA                                    
OBJECT_ID            = -1000                                   
CENTER_NAME          = SUN                     
REF_FRAME            = EME2000 
TIME_SYSTEM          = TCB
START_TIME           = 2036-12-23T00:00:30.346418            
STOP_TIME            = 2047-09-06T04:29:12.034036            
INTERPOLATION        = HERMITE                                 
INTERPOLATION_DEGREE = 7                                       
META_STOP

2040-04-03T21:12:48.011500    -1.47965787849025875e+08    1.92284450861319304e+07    7.89752262770838942e+06   -4.01618841705224661e+00   -2.70213545228689398e+01   -1.19687534468489876e+01    5.88640397507396609e-06   -7.65062552119427611e-07   -3.14221196564038778e-07
2040-04-04T17:27:17.174983    -1.48242804962527692e+08    1.72574596399967819e+07    7.02456601422839146e+06   -3.58680030761068780e+00   -2.70742530528201719e+01   -1.19903875836636988e+01    5.89856868404699175e-06   -6.86783694754358615e-07   -2.79546367354398997e-07
2040-04-05T13:41:46.338464    -1.48488501685752839e+08    1.52828275169720184e+07    6.15012506931832712e+06   -3.15657120729262042e+00   -2.71214409502008920e+01   -1.20094922985251067e+01    5.90948561457879417e-06   -6.08328724872804215e-07   -2.44798768382793405e-07
2040-04-06T09:56:15.501946    -1.48702820061241448e+08    1.33049652966953330e+07    5.27438429549281951e+06   -2.72559216342803179e+00   -2.71629059899183112e+01   -1.20260625582371485e+01    5.91915144283750197e-06   -5.29714342494237502e-07   -2.09985800217763384e-07
2040-04-07T06:10:44.665428    -1.48885708797326475e+08    1.13242903996558189e+07    4.39752853979482502e+06   -2.29395445549218202e+00   -2.71986371660322455e+01   -1.20400938698250819e+01    5.92756312249568078e-06   -4.50957308449128776e-07   -1.75114889194553315e-07
2040-04-08T02:25:13.828910    -1.49037123268977553e+08    9.34122100224451348e+06    3.51974295621648338e+06   -1.86174957463124668e+00   -2.72286246960600380e+01   -1.20515822823562431e+01    5.93471789092471561e-06   -3.72074440870602944e-07   -1.40193485839783883e-07
2040-04-08T22:39:42.992392    -1.49157025513982385e+08    7.35617595235727355e+06    2.64121296838338487e+06   -1.42906920290024875e+00   -2.72528600250167763e+01   -1.20605243886426656e+01    5.94061327088611462e-06   -2.93082611436818567e-07   -1.05229063204405672e-07
2040-04-09T18:54:12.155874    -1.49245384230221063e+08    5.36957468396017700e+06    1.76212423177540861e+06   -9.96005192539909601e-01   -2.72713358291728447e+01   -1.20669173268189915e+01    5.94524706779542748e-06   -2.13998741372172244e-07   -7.02291151082340884e-08
2040-04-10T15:08:41.319357    -1.49302174779787093e+08    3.38183712902785093e+06    8.82662594757266343e+05   -5.62649545618876701e-01   -2.72840460195107539e+01   -1.20707587817890154e+01    5.94861736241905195e-06   -1.34839797192461939e-07   -3.52011542900412218e-08
2040-04-11T11:23:10.482838    -1.49327379205710441e+08    1.39338362526478618e+06    3.01405769182369113e+03   -1.29094394367943011e-01   -2.72909857448632778e+01   -1.20720469865342661e+01    5.95072249915342226e-06   -5.56227862080736162e-08   -1.52710468825871593e-10
2040-04-12T07:37:39.646320    -1.49320986267036945e+08   -5.95365181980207562e+05   -8.76635270590558648e+05    3.04568017467166108e-01   -2.72921513947149066e+01   -1.20707807232779931e+01    5.95156106983240387e-06    2.36352482149503492e-08    3.49086716835743781e-08
2040-04-13T03:52:08.809802    -1.49282991498018712e+08   -2.58398844519591331e+06   -1.75609921969366074e+06    7.38245351927936611e-01   -2.72875406016485869e+01   -1.20669593244979652e+01    5.95113189302870853e-06    1.02917231647573429e-07    6.99754346635548797e-08
2040-04-14T00:06:37.973284    -1.49213397297170073e+08   -4.57206522917698696e+06   -2.63519160865486600e+06    1.17184519247359020e+00   -2.72771522434197635e+01   -1.20605826737814343e+01    5.94943398877037498e-06    1.82206063849272238e-07    1.05040010352396401e-07
2040-04-14T20:16:37.919322    -1.49112644693274736e+08   -6.55183538827728480e+06   -3.51048173413956957e+06    1.60367418365895964e+00   -2.72610568024868556e+01   -1.20516889054361034e+01    5.94648048616482614e-06    2.61191727462277220e-07    1.39965323559911148e-07
2040-04-15T16:26:37.865360    -1.48980550234912932e+08   -8.53022888595328480e+06   -4.38503414626590628e+06    2.03524300977733752e+00   -2.72392278917726323e+01   -1.20402601408473853e+01    5.94226690090153491e-06    3.40150183224189147e-07    1.74873420349247270e-07
2040-04-16T12:36:37.811398    -1.48817136157792032e+08   -1.05068295779147819e+07   -5.25866486478646845e+06    2.46646019122725590e+00   -2.72116681025148779e+01   -1.20262979023791097e+01    5.93679333243186781e-06    4.19064458160784026e-07    2.09756793205103874e-07
2040-04-17T08:46:37.757437    -1.48622431282001436e+08   -1.24812215214187726e+07   -6.13119002568739932e+06    2.89723426364275349e+00   -2.71783812591010481e+01   -1.20098042578123998e+01    5.93006010531483092e-06    4.97917555552399497e-07    2.44607924995393843e-07
2040-04-18T04:56:37.703474    -1.48396471059752971e+08   -1.44529890911321696e+07   -7.00242593263060320e+06    3.32747379509796248e+00   -2.71393724204957998e+01   -1.19907818209095716e+01    5.92206779210085332e-06    5.76692462979802180e-07    2.79419292614843081e-07
2040-04-19T01:06:37.649513    -1.48139297598183155e+08   -1.64217170826104209e+07   -7.87218910281833168e+06    3.75708740480693759e+00   -2.70946478811114631e+01   -1.19692337517260263e+01    5.91281723175192628e-06    6.55372159618651498e-07    3.14183370281627623e-07
2040-04-19T21:16:37.595551    -1.47850959662359774e+08   -1.83869908061220460e+07   -8.74029630850840732e+06    4.18598378299889706e+00   -2.70442151711761269e+01   -1.19451637566953703e+01    5.90230954360378606e-06    7.33939622784529564e-07    3.48892632487957590e-07
2040-04-20T17:26:37.541588    -1.47531512663632482e+08   -2.03483961735306159e+07   -9.60656461539991572e+06    4.61407171164498386e+00   -2.69880830566538066e+01   -1.19185760885128929e+01    5.89054613685919236e-06    8.12377833727302405e-07    3.83539556604013195e-07
2040-04-21T13:36:37.487627    -1.47181018638468295e+08   -2.23055197809455208e+07   -1.04708114191092812e+07    5.04126008571264705e+00   -2.69262615387711151e+01   -1.18894755458425649e+01    5.87752871563289130e-06    8.90669782677046641e-07    4.18116625136308434e-07
2040-04-22T09:46:37.433665    -1.46799546222911924e+08   -2.42579489898529202e+07   -1.13328544809565526e+07    5.46745793462373264e+00   -2.68587618532048822e+01   -1.18578674728726625e+01    5.86325927951320671e-06    9.68798473137984221e-07    4.52616327638761524e-07
2040-04-23T05:56:37.379703    -1.46387170627811879e+08   -2.62052720094382316e+07   -1.21925119642818552e+07    5.89257444359239546e+00   -2.67855964689851511e+01   -1.18237577587451721e+01    5.84774011969073450e-06    1.04674692543593836e-06    4.87031162279110082e-07
2040-04-24T02:06:37.325741    -1.45943973619952172e+08   -2.81470779828117415e+07   -1.30496024725117963e+07    6.31651897451892008e+00   -2.67067790871679911e+01   -1.17871528368841130e+01    5.83097381060581853e-06    1.12449817951248400e-06    5.21353637057484160e-07
2040-04-24T22:16:37.271780    -1.45470043514230520e+08   -3.00829570798485354e+07   -1.39039450901958197e+07    6.73920108611554447e+00   -2.66223246393325539e+01   -1.17480596842479077e+01    5.81296319713595756e-06    1.20203529697058966e-06    5.55576270679304143e-07
2040-04-25T18:26:37.217817    -1.44965475182022899e+08   -3.20125005993540585e+07   -1.47553594282322489e+07    7.16053055294040774e+00   -2.65322492859568442e+01   -1.17064858205309381e+01    5.79371137732137974e-06    1.27934136237238605e-06    5.89691593082797196e-07
2040-04-26T14:36:37.163855    -1.44430370080875307e+08   -3.39353010832672417e+07   -1.56036656745040081e+07    7.58041738301568557e+00   -2.64365704147265781e+01   -1.16624393073394295e+01    5.77322168066526468e-06    1.35639948378485901e-06    6.23692145619437571e-07
2040-04-27T10:46:37.109894    -1.43864836310662955e+08   -3.58509524456117898e+07   -1.64486846511438638e+07    7.99877183370605316e+00   -2.63353066388316392e+01   -1.16159287473667998e+01    5.75149764185293436e-06    1.43319279257308047e-06    6.57570480886462992e-07
2040-04-28T06:54:27.318399    -1.43270080186397702e+08   -3.77556471227528602e+07   -1.72887371302698180e+07    8.41476123588663505e+00   -2.62286736483227330e+01   -1.15670529681230150e+01    5.72858571715098643e-06    1.50956807876130829e-06    6.91259020867553223e-07
2040-04-29T03:02:17.526905    -1.42645238474745661e+08   -3.96524137893676609e+07   -1.81251592275183462e+07    8.82904591203991629e+00   -2.61165163967462561e+01   -1.15157406762219754e+01    5.70445213059468232e-06    1.58564608351065149e-06    7.24811034084008445e-07
2040-04-29T23:10:07.735411    -1.41990437943176091e+08   -4.15408529200049564e+07   -1.89577747438163124e+07    9.24153749287269299e+00   -2.59988570294356158e+01   -1.14620020310801980e+01    5.67910146561887032e-06    1.66141021725988706e-06    7.58219201306924065e-07
2040-04-30T19:17:57.943916    -1.41305811704002619e+08   -4.34205665954906344e+07   -1.97864082167166546e+07    9.65214794926915332e+00   -2.58757188928458284e+01   -1.14058477219862926e+01    5.65253853062958635e-06    1.73684392367158555e-06    7.91476219532434945e-07
2040-05-01T15:25:48.152422    -1.40591499230535984e+08   -4.52911586256424636e+07   -2.06108849747458659e+07    1.00607896093466334e+01   -2.57471265317094229e+01   -1.13472889667317052e+01    5.62476837896599299e-06    1.81193069138532102e-06    8.24574807188541697e-07
